full_name,a,e,i,om,w,q,ad,per_y,data_arc,condition_code,n_obs_used,n_del_obs_used,n_dop_obs_used,H
" 27829 (1994 BM4)",2.804543110474665,.1835695465433539,6.874186556294361,256.7250013804415,212.2698647887217,2.289714403423543,3.319371817525787,4.69679259434541,15784,0,1122,,,13.8
" 31761 (1999 JO103)",2.80473160848274,.2358732492455417,8.525107370735419,134.5776176466493,252.9109888042778,2.143170450728241,3.466292766237239,4.69726612116755,12588,0,1037,,,13.7
"  2905 Plaskett (1982 BZ2)",2.80513647802334,.09462778576560386,8.899790052511806,9.845343251352364,220.1165496178836,2.539692624337667,3.070580331709013,4.6982832498301,16378,0,1817,,,12.0
"  2353 Alva (1975 UD)",2.805268105980345,.1127320444339834,4.796081664639343,24.66123764708492,301.1907975666817,2.489024497207732,3.121511714752958,4.69861394640323,18704,0,2199,,,11.5
" 15720 (1990 EN1)",2.805982262070127,.1513336119085627,7.442375627412153,230.7207369848347,350.9213502025018,2.381342831399695,3.230621692740558,4.70040829752497,10253,0,1483,,,13.6
" 17250 Genelucas (2000 GW122)",2.806224641328261,.1610577895700125,1.970955869502506,221.684081485876,332.3348982114002,2.35426030355903,3.258188979097491,4.70101733883668,12082,0,1493,,,13.7
"  7083 Kant (1989 CL3)",2.806681803761762,.2262487278516016,6.826405544933519,241.73335544,147.7984114660259,2.171673616176425,3.441689991347099,4.70216615067157,22751,0,1587,,,12.9
" 45443 (2000 AR179)",2.806881723053033,.1360703196846874,12.15806057828896,257.2386570218356,312.3006521858829,2.424948429680101,3.188815016425965,4.70266856091778,21004,0,1195,,,13.5
" 11567 (1993 FF82)",2.807145478452126,.01233249149385519,4.713465631536391,27.82616761147259,167.94712290,2.772526380717101,2.84176457618715,4.70333142284958,14864,0,1372,,,13.8
"  1668 Hanna (1933 OK)",2.807173938278928,.2142045673803081,4.73937280272275,160.9713597578134,191.1672121752368,2.205864459268615,3.408483417289242,4.70340294906971,30658,0,2029,,,12.2
"  8146 Jimbell (1983 WG)",2.807834253784899,.2162022133432427,11.29282180940337,76.81511693804639,29.07475640953203,2.200774273415632,3.414894234154167,4.70506257860907,21749,0,1123,,,12.8
"  5467 (1988 AG)",2.808149540233434,.168891568301892,8.753699681124077,339.0355857802783,141.5358004533768,2.333876760357172,3.282422320109696,4.70585508484996,15784,0,1301,,,12.9
"  5399 Awa (1989 BT)",2.808513897947337,.1848534621184265,3.736028003737821,270.8361744035354,176.9327357359098,2.289350380504055,3.32767741539062,4.70677099238592,14415,0,1741,,,12.4
" 34123 Uedayukika (2000 QD)",2.808594898053989,.2052395443086946,7.915051255396031,127.3061313983884,156.2576958327696,2.232160161029664,3.385029635078314,4.7069746152173,12451,0,1262,,,13.5
"  3860 Plovdiv (1986 PM4)",2.808688263800366,.1541132867135353,8.120318388093704,289.5281126608621,44.06406980350518,2.375832084112358,3.241544443488373,4.70720932716386,31872,0,1775,,,11.6
" 29735 (1999 BR6)",2.808908287110185,.06919397701717621,7.108395719530185,41.23283228634374,67.95238464470813,2.614548751648527,3.003267822571842,4.7077624587124,15217,0,1235,,,13.8
"  8281 (1991 PC18)",2.808931759010308,.07808059769104152,6.180250933690516,295.6826851343075,124.1494088281761,2.589608688393435,3.028254829627182,4.70782146759581,23270,0,1592,,,13.2
" 28116 (1998 SP56)",2.808960152180188,.07322053185476303,3.661077088431572,15.17226118945674,312.6742148017841,2.603286595878718,3.014633708481657,4.70789284899127,9879,0,1385,,,13.7
"  6717 Antal (1990 TU10)",2.809340069467549,.2365283828375371,6.37590102646571,233.2920164696279,99.241560501514,2.144851405995695,3.473828732939402,4.70884800869113,16655,0,1151,,,13.6
" 11940 (1993 GR)",2.810282543665462,.1236828810777418,4.274230094697761,39.53615313269873,172.1201652701622,2.462698702022433,3.157866385308491,4.71121778584375,14481,0,1557,,,13.4
"  2244 Tesla (1952 UW1)",2.810584449960188,.1809295485763723,7.823225598108897,106.4922565654537,297.7813068362294,2.302066674193119,3.319102225727256,4.71197698949122,23602,0,1591,,,11.8
"   858 El Djezair (1916 a)",2.810914728006725,.1023120319758261,8.874148983529148,67.19291179149687,179.1682299201678,2.523324330473581,3.098505125539869,4.71280758627751,39899,0,1793,,,10.3
"  5565 Ukyounodaibu (1991 VN2)",2.812135230515179,.21514379300449,10.30052271430025,138.7788683641132,265.9085983001092,2.207121790580588,3.41714867044977,4.71587737940874,23749,0,1927,,,12.1
" 52652 (1997 YV18)",2.81214772578002,.199299024754722,8.365864537127225,101.3430755105747,302.4530342490742,2.251689426565853,3.372606024994188,4.71590881079314,7396,0,1242,,,13.7
"   716 Berkeley (1911 MD)",2.812782297586049,.08545055872864453,8.480947469769713,145.9786588298367,57.63787546968485,2.57242847867528,3.053136116496817,4.71750514491843,40768,0,2128,,,10.84
"  5450 Sokrates (2780 P-L)",2.812887885681489,.122775455676568,5.231749627488667,145.2098333216595,318.69497758,2.467534293749847,3.158241477613132,4.71777078068689,24700,0,1845,,,12.4
"  2386 Nikonov (1974 SN1)",2.81455603455013,.1583810202115062,9.084620186848699,4.896565572530707,311.6996683217288,2.368783778355629,3.26032829074463,4.7219681275001,27918,0,1741,,,11.6
"  2868 Upupa (1972 UA)",2.817099011950765,.1747429945070517,7.537543246696857,137.9471757319599,262.3333507566983,2.324830694779632,3.309367329121899,4.7283690855811,16255,0,1660,,,12.9
" 10919 Pepikzicha (1998 AQ8)",2.819289856839023,.02033473035455858,4.258694341086119,237.5118225334016,90.481234148594,2.76196035780886,2.876619355869187,4.73388600404754,7974,0,1442,,,13.8
"  2953 Vysheslavia (1979 SV11)",2.829598092409134,.02103078900491719,1.072378188060511,250.9186678738814,12.79462400441846,2.770089411958961,2.889106772859306,4.75987264931426,24167,0,2167,,,11.8
" 28406 (1999 TB100)",2.831570859913372,.06062868686375064,17.03978611568613,165.8509912634828,105.2428896690762,2.659896436915163,3.003245282911581,4.76485132027645,9806,0,1070,,,13.6
"  2338 Bokhan (1977 QA3)",2.831867035912966,.06316957175987407,3.203779809077576,112.6225875945787,201.7106181090809,2.65297920797344,3.010754863852492,4.76559892906405,23542,0,2205,,,11.9
"  1835 Gajdariya (1970 OE)",2.832455313852075,.08890385395148157,.985848904637934,296.2564639216116,80.80216994108329,2.580639120305272,3.084271507398877,4.76708397882387,21716,0,1959,,,11.7
"  6925 Susumu (1993 UW2)",2.834793881266685,.1005109370838461,14.20723713921993,207.5072541587917,85.48137107696343,2.549866091821017,3.119721670712353,4.77298898707922,19498,0,1677,,,12.2
"  4162 SAF (1940 WA)",2.835429049273535,.1352898806048932,14.24918647894378,254.2046015314149,156.8911877072537,2.451824191733673,3.219033906813397,4.7745932411315,28241,0,1520,,,11.6
"   975 Perseverantia (1922 LT)",2.83630229945238,.03148982862707454,2.557947471967013,38.72526618326104,58.91494295304106,2.746987626108047,2.925616972796713,4.77679911650428,35033,0,2500,,,10.41
"  4782 Gembloux (1980 TH3)",2.837878301132688,.07133526435620337,1.336744287252663,339.1837207654875,348.1959795138665,2.635437502310654,3.040319099954722,4.78078103820178,24042,0,1841,,,12.2
"  2300 Stebbins (1953 TG2)",2.838944129525376,.07738328805189025,2.317817877708408,31.79022768569447,356.6288383139311,2.619257298187092,3.058630960863661,4.78347458424064,23544,0,2184,,,11.8
" 19580 (1999 ND)",2.839066969325864,.08119648580899423,18.12193992444659,106.8623591814843,197.9850515094194,2.608544708440212,3.069589230211516,4.78378505570099,9692,0,1121,,,13.2
"  4566 Chaokuangpiu (1981 WM4)",2.839067410020582,.2113278249905532,10.79688273551004,252.4267808887419,121.3282882458423,2.239093469259369,3.439041350781795,4.78378616954697,12939,0,1515,,,12.2
"  6026 Xenophanes (1993 BA8)",2.839185868122983,.06850399801323638,3.220364868952163,202.9840681897382,.3771521799324449,2.644690285053877,3.033681451192089,4.78408557286914,15100,0,2019,,,12.6
" 22043 (1999 XW204)",2.83937994639702,.109091724761782,16.48390820787829,323.54143530802,18.77639375884052,2.529627090790553,3.149132802003487,4.78457611997362,9835,0,1183,,,13.0
"  2051 Chang (1976 UC)",2.84203930300045,.07534578517457484,1.355819287080043,215.0744642885204,175.136141236224,2.62790362021888,3.05617498578202,4.79129952781282,32405,0,2432,,,11.5
"  1802 Zhang Heng (1964 TW1)",2.843152685753342,.03713173423674933,2.68934132145331,142.5714408048395,296.8339408755648,2.737581495831449,2.948723875675236,4.79411532596742,25050,0,2197,,,11.7
" 83973 (2002 AS181)",2.843301390419009,.2325733288924746,15.80417096905356,301.9781374105042,19.37814310634663,2.182025321004659,3.50457745983336,4.79449144891113,11505,0,894,,,13.7
" 25700 (2000 AA128)",2.843477395831344,.06732160514589386,17.49144703441391,143.1579879781632,123.7384374149299,2.652049933347912,3.034904858314776,4.79493663712059,17672,0,1207,,,13.1
"  1597 Laugier (1949 EB)",2.844870710833717,.09053779329061463,11.81195539980051,158.6279182234925,52.09777601420658,2.58730239447773,3.102439027189703,4.79846137526678,25077,0,1857,,,11.7
"  1745 Ferguson (1941 SY1)",2.84526034380055,.05722132087185461,3.256018067319845,78.65026405885628,338.8845728442675,2.682450788703975,3.008069898897125,4.7994472035944,27801,0,2044,,,11.9
"  7857 Lagerros (1978 QC3)",2.845367154787199,.1680076170837797,12.65846019803214,133.3675393201471,292.7758634497313,2.367323799382947,3.32341051019145,4.79971746278351,18998,0,1590,,,11.8
"  1570 Brunonia (1948 TX)",2.845382049662891,.05544150688481515,1.666657283614823,190.1009767755686,224.4881169423529,2.687629781166576,3.003134318159205,4.79975515104199,25371,0,2289,,,12.0
"  2209 Tianjin (1978 US1)",2.845561185343335,.06725944975292354,2.612876717225921,150.8941474102645,261.5537575438854,2.654170305778866,3.036952064907805,4.80020842282893,27654,0,2019,,,11.1
"  2755 Avicenna (1973 SJ4)",2.845735171601651,.2586275665461044,4.569299148172343,232.3546060877335,149.2626480123577,2.109749609135655,3.581720734067647,4.80064867855406,17057,0,1315,,,13.3
